{
  "type": "FeatureCollection",
  "features": [
    {
      "type": "Feature",
      "properties": {
        "place_id": "PL_ROAD_001",
        "name": "Naubasta Main Road",
        "type": "road",
        "area_id": "WARD_30",
        "address": "Naubasta Main Road (Hamirpur Road), Kanpur"
      },
      "geometry": {
        "type": "LineString",
        "coordinates": [
          [
            80.3315,
            26.4069
          ],
          [
            80.3308,
            26.4042
          ],
          [
            80.3302,
            26.401
          ],
          [
            80.3294,
            26.397
          ]
        ]
      }
    },
    {
      "type": "Feature",
      "properties": {
        "place_id": "PL_ROAD_002",
        "name": "Ratanpur Link Road",
        "type": "road",
        "area_id": "WARD_30",
        "address": "Ratanpur Link, Naubasta"
      },
      "geometry": {
        "type": "LineString",
        "coordinates": [
          [
            80.3315,
            26.4069
          ],
          [
            80.335,
            26.4072
          ],
          [
            80.34,
            26.4075
          ],
          [
            80.345,
            26.4078
          ]
        ]
      }
    },
    {
      "type": "Feature",
      "properties": {
        "place_id": "PL_PARK_001",
        "name": "Machhariya Community Park",
        "type": "park",
        "area_id": "WARD_91",
        "address": "Machhariya, Naubasta"
      },
      "geometry": {
        "type": "Polygon",
        "coordinates": [
          [
            [
              80.338,
              26.411
            ],
            [
              80.34,
              26.411
            ],
            [
              80.34,
              26.4095
            ],
            [
              80.338,
              26.4095
            ],
            [
              80.338,
              26.411
            ]
          ]
        ]
      }
    },
    {
      "type": "Feature",
      "properties": {
        "place_id": "PL_PARK_002",
        "name": "Hanspuram Children Park",
        "type": "park",
        "area_id": "WARD_39",
        "address": "Hanspuram, Naubasta"
      },
      "geometry": {
        "type": "Polygon",
        "coordinates": [
          [
            [
              80.3265,
              26.383
            ],
            [
              80.3285,
              26.383
            ],
            [
              80.3285,
              26.3815
            ],
            [
              80.3265,
              26.3815
            ],
            [
              80.3265,
              26.383
            ]
          ]
        ]
      }
    },
    {
      "type": "Feature",
      "properties": {
        "place_id": "PL_HOME_001",
        "name": "Residential Cluster A-17",
        "type": "home",
        "area_id": "WARD_30",
        "address": "Naubasta Sector A, Kanpur"
      },
      "geometry": {
        "type": "Point",
        "coordinates": [
          80.3305,
          26.402
        ]
      }
    },
    {
      "type": "Feature",
      "properties": {
        "place_id": "PL_HOME_002",
        "name": "Residential Cluster C-04",
        "type": "home",
        "area_id": "WARD_30",
        "address": "Naubasta Sector C, Kanpur"
      },
      "geometry": {
        "type": "Point",
        "coordinates": [
          80.333,
          26.405
        ]
      }
    },
    {
      "type": "Feature",
      "properties": {
        "place_id": "PL_SHOP_001",
        "name": "Naubasta General Store",
        "type": "shop",
        "area_id": "WARD_30",
        "address": "Naubasta Chowk, Kanpur"
      },
      "geometry": {
        "type": "Point",
        "coordinates": [
          80.3316,
          26.4055
        ]
      }
    },
    {
      "type": "Feature",
      "properties": {
        "place_id": "PL_SHOP_002",
        "name": "Galla Mandi Hardware",
        "type": "shop",
        "area_id": "WARD_30",
        "address": "Naubasta Galla Mandi, Kanpur"
      },
      "geometry": {
        "type": "Point",
        "coordinates": [
          80.3275,
          26.4035
        ]
      }
    },
    {
      "type": "Feature",
      "properties": {
        "place_id": "PL_STOP_001",
        "name": "Naubasta Bus Stop",
        "type": "public-place",
        "area_id": "WARD_30",
        "address": "Naubasta Chauraha, Kanpur"
      },
      "geometry": {
        "type": "Point",
        "coordinates": [
          80.332,
          26.4065
        ]
      }
    },
    {
      "type": "Feature",
      "properties": {
        "place_id": "PL_SCHOOL_001",
        "name": "Hanspuram Public School",
        "type": "public-place",
        "area_id": "WARD_39",
        "address": "Hanspuram, Kanpur"
      },
      "geometry": {
        "type": "Point",
        "coordinates": [
          80.327,
          26.382
        ]
      }
    }
  ]
}